{"type":"FeatureCollection","features":[{"type":"Feature","id":1,"geometry":{"type":"Point","coordinates":[-155.07948649433041,19.683677327066405]},"properties":{"objectid":1,"name":"Kawailani Fire Station","island":"Hawaii"}},{"type":"Feature","id":2,"geometry":{"type":"Point","coordinates":[-155.0861914899117,19.720312169810672]},"properties":{"objectid":2,"name":"Central Fire Station","island":"Hawaii"}},{"type":"Feature","id":3,"geometry":{"type":"Point","coordinates":[-155.66120854579125,20.023131249078745]},"properties":{"objectid":3,"name":"Waimea Fire Station","island":"Hawaii"}},{"type":"Feature","id":4,"geometry":{"type":"Point","coordinates":[-155.79833341907198,20.229992624726169]},"properties":{"objectid":4,"name":"North Kohala Fire Station","island":"Hawaii"}},{"type":"Feature","id":5,"geometry":{"type":"Point","coordinates":[-155.94048755181024,19.560533528250581]},"properties":{"objectid":5,"name":"Keauhou Fire Station","island":"Hawaii"}},{"type":"Feature","id":6,"geometry":{"type":"Point","coordinates":[-154.95835753737535,19.509331381465451]},"properties":{"objectid":6,"name":"Pahoa Fire Station","island":"Hawaii"}},{"type":"Feature","id":7,"geometry":{"type":"Point","coordinates":[-155.90900988501426,19.488492062508541]},"properties":{"objectid":7,"name":"Captain Cook Fire Station","island":"Hawaii"}},{"type":"Feature","id":8,"geometry":{"type":"Point","coordinates":[-155.79387883575552,19.924911378057271]},"properties":{"objectid":8,"name":"Waikoloa Fire Station","island":"Hawaii"}},{"type":"Feature","id":9,"geometry":{"type":"Point","coordinates":[-155.46254623913831,20.077212350753552]},"properties":{"objectid":9,"name":"Honokaa Fire Station","island":"Hawaii"}},{"type":"Feature","id":10,"geometry":{"type":"Point","coordinates":[-155.04010362986631,19.620931306335272]},"properties":{"objectid":10,"name":"Keaau Fire Station","island":"Hawaii"}},{"type":"Feature","id":11,"geometry":{"type":"Point","coordinates":[-155.05848339598694,19.724114261474007]},"properties":{"objectid":11,"name":"Waiakea Fire Station","island":"Hawaii"}},{"type":"Feature","id":12,"geometry":{"type":"Point","coordinates":[-155.10897512433917,19.710797384176214]},"properties":{"objectid":12,"name":"Kaumana Fire Station","island":"Hawaii"}},{"type":"Feature","id":13,"geometry":{"type":"Point","coordinates":[-155.8338738945088,19.946751175994908]},"properties":{"objectid":13,"name":"South Kohala Fire Station","island":"Hawaii"}},{"type":"Feature","id":14,"geometry":{"type":"Point","coordinates":[-154.97411999608477,19.574281315481905]},"properties":{"objectid":14,"name":"Hawaiian Paradise Park Fire Station","island":"Hawaii"}},{"type":"Feature","id":15,"geometry":{"type":"Point","coordinates":[-155.9924113563354,19.647346298664502]},"properties":{"objectid":15,"name":"Kailua Fire Station","island":"Hawaii"}},{"type":"Feature","id":16,"geometry":{"type":"Point","coordinates":[-155.77834971738568,19.117483192878876]},"properties":{"objectid":16,"name":"Hawaiian Ocean View Fire Station","island":"Hawaii"}},{"type":"Feature","id":17,"geometry":{"type":"Point","coordinates":[-155.47311011354753,19.200927489100376]},"properties":{"objectid":17,"name":"Pahala Fire Station","island":"Hawaii"}},{"type":"Feature","id":18,"geometry":{"type":"Point","coordinates":[-155.27597846432704,19.433977493994529]},"properties":{"objectid":18,"name":"Volcano Fire Station","island":"Hawaii"}},{"type":"Feature","id":19,"geometry":{"type":"Point","coordinates":[-155.23284348930727,19.983007463495486]},"properties":{"objectid":19,"name":"Laupahoehoe Fire Station","island":"Hawaii"}},{"type":"Feature","id":20,"geometry":{"type":"Point","coordinates":[-155.05824686171223,19.72385077023522]},"properties":{"objectid":20,"name":"Fire Department Maintenance Shop","island":"Hawaii"}},{"type":"Feature","id":21,"geometry":{"type":"Point","coordinates":[-155.08647984051066,19.719945872441087]},"properties":{"objectid":21,"name":"Fire Warehouse and Dispatch Center","island":"Hawaii"}},{"type":"Feature","id":22,"geometry":{"type":"Point","coordinates":[-155.97730443246664,19.733436329118547]},"properties":{"objectid":22,"name":"Makalei Fire Station","island":"Hawaii"}},{"type":"Feature","id":23,"geometry":{"type":"Point","coordinates":[-155.5868485734097,19.061313861415936]},"properties":{"objectid":23,"name":"Naalehu Medic 11","island":"Hawaii"}},{"type":"Feature","id":24,"geometry":{"type":"Point","coordinates":[-159.4790024864858,22.212268442000973]},"properties":{"objectid":24,"name":"HANALEI FIRE STATION","island":"Kauai"}},{"type":"Feature","id":25,"geometry":{"type":"Point","coordinates":[-159.46743987004083,21.88374287957404]},"properties":{"objectid":25,"name":"KOLOA FIRE STATION","island":"Kauai"}},{"type":"Feature","id":26,"geometry":{"type":"Point","coordinates":[-159.66820360219884,21.955486607916157]},"properties":{"objectid":26,"name":"WAIMEA FIRE STATION","island":"Kauai"}},{"type":"Feature","id":27,"geometry":{"type":"Point","coordinates":[-159.36386461997566,21.971375472606319]},"properties":{"objectid":27,"name":"LIHUE FIRE STATION","island":"Kauai"}},{"type":"Feature","id":28,"geometry":{"type":"Point","coordinates":[-159.32225183019432,22.060369507776766]},"properties":{"objectid":28,"name":"KAPAA FIRE STATION","island":"Kauai"}},{"type":"Feature","id":29,"geometry":{"type":"Point","coordinates":[-159.58834920052445,21.909491928305108]},"properties":{"objectid":29,"name":"HANAPEPE FIRE STATION","island":"Kauai"}},{"type":"Feature","id":30,"geometry":{"type":"Point","coordinates":[-159.52625527303212,21.925256734729722]},"properties":{"objectid":30,"name":"KALAHEO FIRE STATION","island":"Kauai"}},{"type":"Feature","id":31,"geometry":{"type":"Point","coordinates":[-159.30922062764466,22.087202347875905]},"properties":{"objectid":31,"name":"KAIAKEA FIRE STATION","island":"Kauai"}},{"type":"Feature","id":32,"geometry":{"type":"Point","coordinates":[-155.23289084272557,19.982889423049077]},"properties":{"objectid":32,"name":"Laupahoehoe - Volunteer","island":"Hawaii"}},{"type":"Feature","id":33,"geometry":{"type":"Point","coordinates":[-155.97311289390584,19.707563027745138]},"properties":{"objectid":33,"name":"Kalaoa Mauka - Volunteer","island":"Hawaii"}},{"type":"Feature","id":34,"geometry":{"type":"Point","coordinates":[-155.83262597503813,20.082682148419767]},"properties":{"objectid":34,"name":"Kohala Ranch - Volunteer","island":"Hawaii"}},{"type":"Feature","id":35,"geometry":{"type":"Point","coordinates":[-155.87861571539105,19.314969886198536]},"properties":{"objectid":35,"name":"Kona Paradise Subdivision - Volunteer","island":"Hawaii"}},{"type":"Feature","id":36,"geometry":{"type":"Point","coordinates":[-155.90529553920157,19.189837294889543]},"properties":{"objectid":36,"name":"Milolii - Volunteer","island":"Hawaii"}},{"type":"Feature","id":37,"geometry":{"type":"Point","coordinates":[-154.90160205233485,19.547401722970758]},"properties":{"objectid":37,"name":"Hawaiian Beaches - Volunteer","island":"Hawaii"}},{"type":"Feature","id":38,"geometry":{"type":"Point","coordinates":[-154.85784346588312,19.542948617527912]},"properties":{"objectid":38,"name":"Waa Waa - Volunteer","island":"Hawaii"}},{"type":"Feature","id":39,"geometry":{"type":"Point","coordinates":[-155.78748277251853,19.926315172354805]},"properties":{"objectid":39,"name":"Waikoloa Village - Volunteer","island":"Hawaii"}},{"type":"Feature","id":40,"geometry":{"type":"Point","coordinates":[-155.98241384926092,19.830471975470058]},"properties":{"objectid":40,"name":"Kona Village - Volunteer","island":"Hawaii"}},{"type":"Feature","id":41,"geometry":{"type":"Point","coordinates":[-155.63532204160211,19.040407928125518]},"properties":{"objectid":41,"name":"Discovery Harbour - Volunteer","island":"Hawaii"}},{"type":"Feature","id":42,"geometry":{"type":"Point","coordinates":[-155.2305675668199,19.434465201212053]},"properties":{"objectid":42,"name":"Volcano Village - Volunteer","island":"Hawaii"}},{"type":"Feature","id":43,"geometry":{"type":"Point","coordinates":[-155.77830025164656,19.117475607826083]},"properties":{"objectid":43,"name":"Ocean View - Volunteer","island":"Hawaii"}},{"type":"Feature","id":44,"geometry":{"type":"Point","coordinates":[-155.10494329542763,19.8351887120815]},"properties":{"objectid":44,"name":"Pepeekeo - Volunteer","island":"Hawaii"}},{"type":"Feature","id":45,"geometry":{"type":"Point","coordinates":[-155.12987401371723,19.459197944483456]},"properties":{"objectid":45,"name":"Fern Forest - Volunteer","island":"Hawaii"}},{"type":"Feature","id":46,"geometry":{"type":"Point","coordinates":[-155.04983856952228,19.556529738542142]},"properties":{"objectid":46,"name":"Hawaiian Acres - Volunteer","island":"Hawaii"}},{"type":"Feature","id":47,"geometry":{"type":"Point","coordinates":[-155.09212935242223,19.538958502736783]},"properties":{"objectid":47,"name":"Fern Acres - Volunteer","island":"Hawaii"}},{"type":"Feature","id":48,"geometry":{"type":"Point","coordinates":[-155.99097645275131,19.826806545035975]},"properties":{"objectid":48,"name":"Four Seasons - Volunteer","island":"Hawaii"}},{"type":"Feature","id":49,"geometry":{"type":"Point","coordinates":[-154.97426327080461,19.574108121829443]},"properties":{"objectid":49,"name":"Hawaiian Paradise Park - Volunteer","island":"Hawaii"}},{"type":"Feature","id":50,"geometry":{"type":"Point","coordinates":[-155.30091004406489,19.549116096879175]},"properties":{"objectid":50,"name":"Kulani - Volunteer","island":"Hawaii"}},{"type":"Feature","id":51,"geometry":{"type":"Point","coordinates":[-155.65416632717103,19.855744188125918]},"properties":{"objectid":51,"name":"Waikii - Volunteer","island":"Hawaii"}},{"type":"Feature","id":52,"geometry":{"type":"Point","coordinates":[-155.5868727221268,19.06250712208724]},"properties":{"objectid":52,"name":"Naalehu - Volunteer","island":"Hawaii"}},{"type":"Feature","id":53,"geometry":{"type":"Point","coordinates":[-155.4733339083179,19.200889576474925]},"properties":{"objectid":53,"name":"Pahala - Volunteer","island":"Hawaii"}},{"type":"Feature","id":54,"geometry":{"type":"Point","coordinates":[-155.98816187250904,19.649340517252458]},"properties":{"objectid":54,"name":"Kaupulehu - Volunteer","island":"Hawaii"}},{"type":"Feature","id":55,"geometry":{"type":"Point","coordinates":[-157.94617269584901,21.674715505475117]},"properties":{"objectid":55,"name":"Kahuku","island":"Oahu"}},{"type":"Feature","id":56,"geometry":{"type":"Point","coordinates":[-158.06267031179306,21.648539838691001]},"properties":{"objectid":56,"name":"Sunset","island":"Oahu"}},{"type":"Feature","id":57,"geometry":{"type":"Point","coordinates":[-158.1118640334434,21.586524527285263]},"properties":{"objectid":57,"name":"Waialua","island":"Oahu"}},{"type":"Feature","id":58,"geometry":{"type":"Point","coordinates":[-157.90907492575212,21.608051733394472]},"properties":{"objectid":58,"name":"Hauula","island":"Oahu"}},{"type":"Feature","id":59,"geometry":{"type":"Point","coordinates":[-157.8547441868416,21.556662980442365]},"properties":{"objectid":59,"name":"Kaaawa","island":"Oahu"}},{"type":"Feature","id":60,"geometry":{"type":"Point","coordinates":[-158.02790783184673,21.497201847698509]},"properties":{"objectid":60,"name":"Wahiawa","island":"Oahu"}},{"type":"Feature","id":61,"geometry":{"type":"Point","coordinates":[-158.19173158296456,21.449985900347357]},"properties":{"objectid":61,"name":"Waianae","island":"Oahu"}},{"type":"Feature","id":62,"geometry":{"type":"Point","coordinates":[-157.84676049572451,21.457367575282696]},"properties":{"objectid":62,"name":"Kahaluu","island":"Oahu"}},{"type":"Feature","id":63,"geometry":{"type":"Point","coordinates":[-158.01558584209636,21.456929669278569]},"properties":{"objectid":63,"name":"Mililani","island":"Oahu"}},{"type":"Feature","id":64,"geometry":{"type":"Point","coordinates":[-157.7495421474905,21.423845499566344]},"properties":{"objectid":64,"name":"Aikahi","island":"Oahu"}},{"type":"Feature","id":65,"geometry":{"type":"Point","coordinates":[-157.73935135170942,21.396677067904022]},"properties":{"objectid":65,"name":"Kailua","island":"Oahu"}},{"type":"Feature","id":66,"geometry":{"type":"Point","coordinates":[-157.75028338368602,21.376894891676528]},"properties":{"objectid":66,"name":"Olomana","island":"Oahu"}},{"type":"Feature","id":67,"geometry":{"type":"Point","coordinates":[-157.80048999692303,21.413608664184896]},"properties":{"objectid":67,"name":"Kaneohe (Hq.)","island":"Oahu"}},{"type":"Feature","id":68,"geometry":{"type":"Point","coordinates":[-158.13976545313332,21.38169614636303]},"properties":{"objectid":68,"name":"Nanakuli","island":"Oahu"}},{"type":"Feature","id":69,"geometry":{"type":"Point","coordinates":[-157.95115124486207,21.401685366876425]},"properties":{"objectid":69,"name":"Waiau","island":"Oahu"}},{"type":"Feature","id":70,"geometry":{"type":"Point","coordinates":[-157.93098698148052,21.383600405936658]},"properties":{"objectid":70,"name":"Aiea","island":"Oahu"}},{"type":"Feature","id":71,"geometry":{"type":"Point","coordinates":[-158.02233650894894,21.37667324672837]},"properties":{"objectid":71,"name":"Waipahu","island":"Oahu"}},{"type":"Feature","id":72,"geometry":{"type":"Point","coordinates":[-157.97139579316055,21.390234036747941]},"properties":{"objectid":72,"name":"Pearl City","island":"Oahu"}},{"type":"Feature","id":73,"geometry":{"type":"Point","coordinates":[-157.71516316349869,21.347419421097385]},"properties":{"objectid":73,"name":"Waimanalo","island":"Oahu"}},{"type":"Feature","id":74,"geometry":{"type":"Point","coordinates":[-157.81079053667605,21.309761995664637]},"properties":{"objectid":74,"name":"Manoa","island":"Oahu"}},{"type":"Feature","id":75,"geometry":{"type":"Point","coordinates":[-157.87065032235972,21.344077588443628]},"properties":{"objectid":75,"name":"Kalihi Uka","island":"Oahu"}},{"type":"Feature","id":76,"geometry":{"type":"Point","coordinates":[-157.87574727321336,21.33160807121385]},"properties":{"objectid":76,"name":"Kalihi","island":"Oahu"}},{"type":"Feature","id":77,"geometry":{"type":"Point","coordinates":[-157.84672768375913,21.328160706476595]},"properties":{"objectid":77,"name":"Nuuanu","island":"Oahu"}},{"type":"Feature","id":78,"geometry":{"type":"Point","coordinates":[-157.8583334984379,21.324282774543065]},"properties":{"objectid":78,"name":"Kuakini","island":"Oahu"}},{"type":"Feature","id":79,"geometry":{"type":"Point","coordinates":[-157.87858824983329,21.32163121021005]},"properties":{"objectid":79,"name":"Kalihi Kai","island":"Oahu"}},{"type":"Feature","id":80,"geometry":{"type":"Point","coordinates":[-157.85892942259224,21.311274438884571]},"properties":{"objectid":80,"name":"Central (Hq.)","island":"Oahu"}},{"type":"Feature","id":81,"geometry":{"type":"Point","coordinates":[-157.8651738772792,21.311212119211817]},"properties":{"objectid":81,"name":"Waterfront","island":"Oahu"}},{"type":"Feature","id":82,"geometry":{"type":"Point","coordinates":[-158.08649112883418,21.354541396122769]},"properties":{"objectid":82,"name":"Makakilo","island":"Oahu"}},{"type":"Feature","id":83,"geometry":{"type":"Point","coordinates":[-158.09057910498237,21.32435142762041]},"properties":{"objectid":83,"name":"Kapolei (Hq.)","island":"Oahu"}},{"type":"Feature","id":84,"geometry":{"type":"Point","coordinates":[-157.90076815822908,21.345086257530905]},"properties":{"objectid":84,"name":"Moanalua","island":"Oahu"}},{"type":"Feature","id":85,"geometry":{"type":"Point","coordinates":[-157.93215067630177,21.339944633758602]},"properties":{"objectid":85,"name":"Mokulele","island":"Oahu"}},{"type":"Feature","id":86,"geometry":{"type":"Point","coordinates":[-157.91239216941057,21.319516860184706]},"properties":{"objectid":86,"name":"Airport","island":"Oahu"}},{"type":"Feature","id":87,"geometry":{"type":"Point","coordinates":[-158.00966243741615,21.311699031542119]},"properties":{"objectid":87,"name":"Ewa Beach","island":"Oahu"}},{"type":"Feature","id":88,"geometry":{"type":"Point","coordinates":[-157.69719238760035,21.286272116353615]},"properties":{"objectid":88,"name":"Hawaii Kai","island":"Oahu"}},{"type":"Feature","id":89,"geometry":{"type":"Point","coordinates":[-157.75978636295605,21.277060155576279]},"properties":{"objectid":89,"name":"Wailupe","island":"Oahu"}},{"type":"Feature","id":90,"geometry":{"type":"Point","coordinates":[-157.79490230325467,21.299793356911401]},"properties":{"objectid":90,"name":"Palolo","island":"Oahu"}},{"type":"Feature","id":91,"geometry":{"type":"Point","coordinates":[-157.82487355086289,21.288227653292584]},"properties":{"objectid":91,"name":"McCully","island":"Oahu"}},{"type":"Feature","id":92,"geometry":{"type":"Point","coordinates":[-157.79956923968109,21.278324038746696]},"properties":{"objectid":92,"name":"Kaimuki","island":"Oahu"}},{"type":"Feature","id":93,"geometry":{"type":"Point","coordinates":[-157.81632191567729,21.272881452010253]},"properties":{"objectid":93,"name":"Waikiki (Hq.)","island":"Oahu"}},{"type":"Feature","id":94,"geometry":{"type":"Point","coordinates":[-157.83900922659319,21.306797652529784]},"properties":{"objectid":94,"name":"Makiki","island":"Oahu"}},{"type":"Feature","id":95,"geometry":{"type":"Point","coordinates":[-157.85884105655529,21.302600571644916]},"properties":{"objectid":95,"name":"Kakaako","island":"Oahu"}},{"type":"Feature","id":96,"geometry":{"type":"Point","coordinates":[-157.83913843812456,21.292751727824832]},"properties":{"objectid":96,"name":"Pawaa","island":"Oahu"}},{"type":"Feature","id":97,"geometry":{"type":"Point","coordinates":[-157.9995527782915,21.471442752853495]},"properties":{"objectid":97,"name":"Mililani Mauka (Hq.)","island":"Oahu"}},{"type":"Feature","id":98,"geometry":{"type":"Point","coordinates":[-158.00491958956741,21.400428219296657]},"properties":{"objectid":98,"name":"Waikele","island":"Oahu"}},{"type":"Feature","id":99,"geometry":{"type":"Point","coordinates":[-156.49935899341361,20.887693867941724]},"properties":{"objectid":99,"name":"E1","island":"Maui"}},{"type":"Feature","id":100,"geometry":{"type":"Point","coordinates":[-156.45674589763291,20.879563874970753]},"properties":{"objectid":100,"name":"E10","island":"Maui"}},{"type":"Feature","id":101,"geometry":{"type":"Point","coordinates":[-156.66809297428901,20.984839530078602]},"properties":{"objectid":101,"name":"E11","island":"Maui"}},{"type":"Feature","id":102,"geometry":{"type":"Point","coordinates":[-156.79633263052071,21.072796623982303]},"properties":{"objectid":102,"name":"E12","island":"Molokai"}},{"type":"Feature","id":103,"geometry":{"type":"Point","coordinates":[-156.32922345515087,20.757923659405193]},"properties":{"objectid":103,"name":"E13","island":"Maui"}},{"type":"Feature","id":104,"geometry":{"type":"Point","coordinates":[-156.43689321015248,20.706088819858543]},"properties":{"objectid":104,"name":"E14","island":"Maui"}},{"type":"Feature","id":105,"geometry":{"type":"Point","coordinates":[-156.38006581660784,20.917490609777659]},"properties":{"objectid":105,"name":"E2","island":"Maui"}},{"type":"Feature","id":106,"geometry":{"type":"Point","coordinates":[-156.68474667965722,20.905336389013755]},"properties":{"objectid":106,"name":"E3","island":"Maui"}},{"type":"Feature","id":107,"geometry":{"type":"Point","coordinates":[-157.0098359470615,21.08902853269203]},"properties":{"objectid":107,"name":"E4","island":"Molokai"}},{"type":"Feature","id":108,"geometry":{"type":"Point","coordinates":[-156.33063088008387,20.835772380016891]},"properties":{"objectid":108,"name":"E5","island":"Maui"}},{"type":"Feature","id":109,"geometry":{"type":"Point","coordinates":[-156.45338060378967,20.734758142360175]},"properties":{"objectid":109,"name":"E6","island":"Maui"}},{"type":"Feature","id":110,"geometry":{"type":"Point","coordinates":[-155.99319711820596,20.761924047157862]},"properties":{"objectid":110,"name":"E7","island":"Maui"}},{"type":"Feature","id":111,"geometry":{"type":"Point","coordinates":[-156.91869039419421,20.818606100518984]},"properties":{"objectid":111,"name":"E8","island":"Lanai"}},{"type":"Feature","id":112,"geometry":{"type":"Point","coordinates":[-157.05028049348059,21.163387347089401]},"properties":{"objectid":112,"name":"E9","island":"Molokai"}}]}